STARLINK-31232          
1 58831U 24017F   26068.65104670  .00000276  00000+0  21441-4 0  9990
2 58831  53.1603 204.2623 0001180  50.6420 309.4685 15.30187107120057
JINJUSAT-1B             
1 63210U 25052A   26068.66363707  .00019955  00000+0  68430-3 0  9998
2 63210  97.4113 325.4613 0005550  82.1930 277.9941 15.30194857 54866
